{"type": "FeatureCollection", "features": [ {"type": "Feature", "properties": {"norad_id": 66550, "name": "CZ-7A R/B", "group": "last-30-days", "lat": 5.63198481457941, "lon": -65.27993135341579, "alt_km": 28018.21345627787, "timestamp": "2025-12-08T03:50:05.783947+00:00", "meta": {"OBJECT_NAME": "CZ-7A R/B", "OBJECT_ID": "2025-277B", "EPOCH": "2025-12-06T11:25:58.783584", "MEAN_MOTION": 2.49148263, "ECCENTRICITY": 0.7169465, "INCLINATION": 14.4071, "RA_OF_ASC_NODE": 272.9582, "ARG_OF_PERICENTER": 183.2116, "MEAN_ANOMALY": 166.6906, "EPHEMERIS_TYPE": 0, "CLASSIFICATION_TYPE": "U", "NORAD_CAT_ID": 66550, "ELEMENT_SET_NO": 999, "REV_AT_EPOCH": 18, "BSTAR": 0.0029638743, "MEAN_MOTION_DOT": 0.01473319, "MEAN_MOTION_DDOT": 1.649722e-06}, "tle": {"line1": "1 66550U 25277B   25340.47637481  .01473319  16497-5  29639-2 0  9990", "line2": "2 66550  14.4071 272.9582 7169465 183.2116 166.6906  2.49148263   188"}}, "geometry": {"type": "Point", "coordinates": [-65.27993135341579, 5.63198481457941]}}, {"type": "Feature", "properties": {"norad_id": 66551, "name": "UNKNOWN", "group": "last-30-days", "lat": -2.5071598660322683, "lon": -152.45023591130746, "alt_km": 343.88261852036067, "timestamp": "2025-12-08T03:50:05.783958+00:00", "meta": {"OBJECT_NAME": "UNKNOWN", "OBJECT_ID": "2025-271AE", "EPOCH": "2025-12-02T16:00:03.000096", "MEAN_MOTION": 15.87051116, "ECCENTRICITY": 7.17e-05, "INCLINATION": 53.1571, "RA_OF_ASC_NODE": 236.7807, "ARG_OF_PERICENTER": 110.7411, "MEAN_ANOMALY": 313.9012, "EPHEMERIS_TYPE": 0, "CLASSIFICATION_TYPE": "U", "NORAD_CAT_ID": 66551, "ELEMENT_SET_NO": 999, "REV_AT_EPOCH": 262, "BSTAR": -0.0074303, "MEAN_MOTION_DOT": -0.01709685, "MEAN_MOTION_DDOT": 0}, "tle": {"line1": "1 66551U 25271AE  25336.66670139 -.01709685  00000+0 -74303-2 0  9993", "line2": "2 66551  53.1571 236.7807 0000717 110.7411 313.9012 15.87051116  2624"}}, "geometry": {"type": "Point", "coordinates": [-152.45023591130746, -2.5071598660322683]}}, {"type": "Feature", "properties": {"norad_id": 66554, "name": "GLOBAL-33", "group": "last-30-days", "lat": -15.347019953581974, "lon": 65.68224332328299, "alt_km": 470.32544839338243, "timestamp": "2025-12-08T03:50:05.783968+00:00", "meta": {"OBJECT_NAME": "GLOBAL-33", "OBJECT_ID": "2025-267A", "EPOCH": "2025-12-07T07:35:19.627296", "MEAN_MOTION": 15.31453171, "ECCENTRICITY": 0.00049125, "INCLINATION": 42.0198, "RA_OF_ASC_NODE": 88.3, "ARG_OF_PERICENTER": 13.813, "MEAN_ANOMALY": 346.2841, "EPHEMERIS_TYPE": 0, "CLASSIFICATION_TYPE": "U", "NORAD_CAT_ID": 66554, "ELEMENT_SET_NO": 999, "REV_AT_EPOCH": 257, "BSTAR": 0.00065572959, "MEAN_MOTION_DOT": 0.00020158, "MEAN_MOTION_DDOT": 0}, "tle": {"line1": "1 66554U 25267A   25341.31619939  .00020158  00000+0  65573-3 0  9998", "line2": "2 66554  42.0198  88.3000 0004912  13.8130 346.2841 15.31453171  2576"}}, "geometry": {"type": "Point", "coordinates": [65.68224332328299, -15.347019953581974]}}, {"type": "Feature", "properties": {"norad_id": 66555, "name": "ELECTRON KICK STAGE R/B", "group": "last-30-days", "lat": 15.978335199389532, "lon": 101.85615968971415, "alt_km": 460.98668729797555, "timestamp": "2025-12-08T03:50:05.783979+00:00", "meta": {"OBJECT_NAME": "ELECTRON KICK STAGE R/B", "OBJECT_ID": "2025-267B", "EPOCH": "2025-12-06T14:11:19.744800", "MEAN_MOTION": 15.32375133, "ECCENTRICITY": 0.00070081, "INCLINATION": 42.0184, "RA_OF_ASC_NODE": 92.3831, "ARG_OF_PERICENTER": 7.6662, "MEAN_ANOMALY": 352.4282, "EPHEMERIS_TYPE": 0, "CLASSIFICATION_TYPE": "U", "NORAD_CAT_ID": 66555, "ELEMENT_SET_NO": 999, "REV_AT_EPOCH": 246, "BSTAR": 0.0011819859, "MEAN_MOTION_DOT": 0.00037718, "MEAN_MOTION_DDOT": 0}, "tle": {"line1": "1 66555U 25267B   25340.59120075  .00037718  00000+0  11820-2 0  9991", "line2": "2 66555  42.0184  92.3831 0007008   7.6662 352.4282 15.32375133  2467"}}, "geometry": {"type": "Point", "coordinates": [101.85615968971415, 15.978335199389532]}}, {"type": "Feature", "properties": {"norad_id": 66557, "name": "STARLINK-35699", "group": "last-30-days", "lat": 33.42870258724579, "lon": -166.8963778463692, "alt_km": 397.02123668913555, "timestamp": "2025-12-08T03:50:05.783989+00:00", "meta": {"OBJECT_NAME": "STARLINK-35699", "OBJECT_ID": "2025-268A", "EPOCH": "2025-12-07T06:00:04.999968", "MEAN_MOTION": 15.59236222, "ECCENTRICITY": 0.00017894, "INCLINATION": 42.9999, "RA_OF_ASC_NODE": 153.3756, "ARG_OF_PERICENTER": 270.6458, "MEAN_ANOMALY": 77.1424, "EPHEMERIS_TYPE": 0, "CLASSIFICATION_TYPE": "U", "NORAD_CAT_ID": 66557, "ELEMENT_SET_NO": 999, "REV_AT_EPOCH": 378, "BSTAR": -0.028661304, "MEAN_MOTION_DOT": -0.02025772, "MEAN_MOTION_DDOT": 0}, "tle": {"line1": "1 66557U 25268A   25341.25005787 -.02025772  00000+0 -28661-1 0  9991", "line2": "2 66557  42.9999 153.3756 0001789 270.6458  77.1424 15.59236222  3780"}}, "geometry": {"type": "Point", "coordinates": [-166.8963778463692, 33.42870258724579]}}, {"type": "Feature", "properties": {"norad_id": 66558, "name": "STARLINK-35695", "group": "last-30-days", "lat": 34.33589789748156, "lon": -164.86257677168533, "alt_km": 396.9830924693915, "timestamp": "2025-12-08T03:50:05.784003+00:00", "meta": {"OBJECT_NAME": "STARLINK-35695", "OBJECT_ID": "2025-268B", "EPOCH": "2025-12-07T06:00:04.999968", "MEAN_MOTION": 15.59232336, "ECCENTRICITY": 0.00018208, "INCLINATION": 42.9997, "RA_OF_ASC_NODE": 153.3708, "ARG_OF_PERICENTER": 268.5107, "MEAN_ANOMALY": 81.1983, "EPHEMERIS_TYPE": 0, "CLASSIFICATION_TYPE": "U", "NORAD_CAT_ID": 66558, "ELEMENT_SET_NO": 999, "REV_AT_EPOCH": 378, "BSTAR": -0.028612745, "MEAN_MOTION_DOT": -0.02022534, "MEAN_MOTION_DDOT": 0}, "tle": {"line1": "1 66558U 25268B   25341.25005787 -.02022534  00000+0 -28613-1 0  9992", "line2": "2 66558  42.9997 153.3708 0001820 268.5107  81.1983 15.59232336  3786"}}, "geometry": {"type": "Point", "coordinates": [-164.86257677168533, 34.33589789748156]}}, {"type": "Feature", "properties": {"norad_id": 66559, "name": "STARLINK-35419", "group": "last-30-days", "lat": 35.208652964249765, "lon": -162.78504149778283, "alt_km": 396.84334935781135, "timestamp": "2025-12-08T03:50:05.784013+00:00", "meta": {"OBJECT_NAME": "STARLINK-35419", "OBJECT_ID": "2025-268C", "EPOCH": "2025-12-07T06:00:04.999968", "MEAN_MOTION": 15.59234068, "ECCENTRICITY": 0.00017659, "INCLINATION": 42.9998, "RA_OF_ASC_NODE": 153.3665, "ARG_OF_PERICENTER": 268.6978, "MEAN_ANOMALY": 82.9267, "EPHEMERIS_TYPE": 0, "CLASSIFICATION_TYPE": "U", "NORAD_CAT_ID": 66559, "ELEMENT_SET_NO": 999, "REV_AT_EPOCH": 378, "BSTAR": -0.028623254, "MEAN_MOTION_DOT": -0.02023258, "MEAN_MOTION_DDOT": 0}, "tle": {"line1": "1 66559U 25268C   25341.25005787 -.02023258  00000+0 -28623-1 0  9998", "line2": "2 66559  42.9998 153.3665 0001765 268.6978  82.9267 15.59234068  3783"}}, "geometry": {"type": "Point", "coordinates": [-162.78504149778283, 35.208652964249765]}}, {"type": "Feature", "properties": {"norad_id": 66560, "name": "STARLINK-35411", "group": "last-30-days", "lat": 36.039501814378305, "lon": -160.6779808590047, "alt_km": 396.8629745339849, "timestamp": "2025-12-08T03:50:05.784023+00:00", "meta": {"OBJECT_NAME": "STARLINK-35411", "OBJECT_ID": "2025-268D", "EPOCH": "2025-12-07T06:00:04.999968", "MEAN_MOTION": 15.59239136, "ECCENTRICITY": 0.00018239, "INCLINATION": 42.9999, "RA_OF_ASC_NODE": 153.3619, "ARG_OF_PERICENTER": 266.4309, "MEAN_ANOMALY": 87.1084, "EPHEMERIS_TYPE": 0, "CLASSIFICATION_TYPE": "U", "NORAD_CAT_ID": 66560, "ELEMENT_SET_NO": 999, "REV_AT_EPOCH": 378, "BSTAR": -0.028732622, "MEAN_MOTION_DOT": -0.020304, "MEAN_MOTION_DDOT": 0}, "tle": {"line1": "1 66560U 25268D   25341.25005787 -.02030400  00000+0 -28733-1 0  9999", "line2": "2 66560  42.9999 153.3619 0001823 266.4309  87.1084 15.59239136  3789"}}, "geometry": {"type": "Point", "coordinates": [-160.6779808590047, 36.039501814378305]}}, {"type": "Feature", "properties": {"norad_id": 66561, "name": "STARLINK-35305", "group": "last-30-days", "lat": 37.598808124007135, "lon": -156.29288402667808, "alt_km": 396.53467569677287, "timestamp": "2025-12-08T03:50:05.784046+00:00", "meta": {"OBJECT_NAME": "STARLINK-35305", "OBJECT_ID": "2025-268E", "EPOCH": "2025-12-07T06:00:04.999968", "MEAN_MOTION": 15.59233965, "ECCENTRICITY": 0.00017662, "INCLINATION": 43, "RA_OF_ASC_NODE": 153.3523, "ARG_OF_PERICENTER": 270.3296, "MEAN_ANOMALY": 87.0463, "EPHEMERIS_TYPE": 0, "CLASSIFICATION_TYPE": "U", "NORAD_CAT_ID": 66561, "ELEMENT_SET_NO": 999, "REV_AT_EPOCH": 373, "BSTAR": -0.028632859, "MEAN_MOTION_DOT": -0.02023844, "MEAN_MOTION_DDOT": 0}, "tle": {"line1": "1 66561U 25268E   25341.25005787 -.02023844  00000+0 -28633-1 0  9993", "line2": "2 66561  43.0000 153.3523 0001766 270.3296  87.0463 15.59233965  3733"}}, "geometry": {"type": "Point", "coordinates": [-156.29288402667808, 37.598808124007135]}}, {"type": "Feature", "properties": {"norad_id": 66562, "name": "STARLINK-35579", "group": "last-30-days", "lat": 36.84319353592887, "lon": -158.49802785860797, "alt_km": 396.65764772086186, "timestamp": "2025-12-08T03:50:05.784056+00:00", "meta": {"OBJECT_NAME": "STARLINK-35579", "OBJECT_ID": "2025-268F", "EPOCH": "2025-12-07T06:00:04.999968", "MEAN_MOTION": 15.59234913, "ECCENTRICITY": 0.00017332, "INCLINATION": 43, "RA_OF_ASC_NODE": 153.3563, "ARG_OF_PERICENTER": 267.2051, "MEAN_ANOMALY": 88.2515, "EPHEMERIS_TYPE": 0, "CLASSIFICATION_TYPE": "U", "NORAD_CAT_ID": 66562, "ELEMENT_SET_NO": 999, "REV_AT_EPOCH": 378, "BSTAR": -0.028608108, "MEAN_MOTION_DOT": -0.02022355, "MEAN_MOTION_DDOT": 0}, "tle": {"line1": "1 66562U 25268F   25341.25005787 -.02022355  00000+0 -28608-1 0  9992", "line2": "2 66562  43.0000 153.3563 0001733 267.2051  88.2515 15.59234913  3786"}}, "geometry": {"type": "Point", "coordinates": [-158.49802785860797, 36.84319353592887]}}]}